CSS (TIANHE)            
1 48274U 21035A   23256.93271019  .00038127  00000+0  42240-3 0  9991
2 48274  41.4751 336.1035 0008816   8.9309 351.1686 15.62182600135709
